STARLINK-4108           
1 52834U 22062E   26077.90227704  .00000840  00000+0  70859-4 0  9991
2 52834  53.2189 352.7651 0001763  83.8344 276.2849 15.08837558207173
STARLINK-4080           
1 52835U 22062F   26077.89859630  .00000232  00000+0  32649-4 0  9999
2 52835  53.2187 352.7820 0001322  86.2068 273.9076 15.08844255207179
STARLINK-4043           
1 52836U 22062G   26077.79287369  .00003139  00000+0  21516-3 0  9992
2 52836  53.2186 353.5737 0001443  88.6345 271.4813 15.08845510207158
STARLINK-4036           
1 52837U 22062H   26077.75508527  .00002197  00000+0  15609-3 0  9990
2 52837  53.2195 353.4268 0001265  91.5390 268.5747 15.08844349207154
STARLINK-4092           
1 52838U 22062J   26077.49379841  .00001261  00000+0  97286-4 0  9990
2 52838  53.2193 354.5893 0001272  90.4986 269.6152 15.08835692207115
STARLINK-4048           
1 52839U 22062K   26077.74771995  .00000903  00000+0  74833-4 0  9990
2 52839  53.2192 353.4599 0001195  89.0903 271.0226 15.08841081207155
STARLINK-4049           
1 52840U 22062L   26077.49748789  .00001252  00000+0  96719-4 0  9994
2 52840  53.2180 354.6979 0001600  90.0327 270.0849 15.08845286207119
STARLINK-4065           
1 52841U 22062M   26077.47172502 -.00001015  00000+0 -45709-4 0  9999
2 52841  53.2205 354.6976 0001368  91.5880 268.5269 15.08824660207117
STARLINK-4046           
1 52842U 22062N   26077.75139188  .00000366  00000+0  41079-4 0  9996
2 52842  53.2194 353.3666 0001433  80.7040 279.4114 15.08842432207159
STARLINK-4188           
1 52843U 22062P   26077.79556535 -.00000398  00000+0 -69324-5 0  9991
2 52843  53.2194 353.2447 0001808  97.8985 262.2212 15.08836917207160
STARLINK-4208           
1 52844U 22062Q   26077.74403620  .00001793  00000+0  13071-3 0  9997
2 52844  53.2199 353.4745 0001349  90.0356 270.0790 15.08849331207157
STARLINK-4168           
1 52845U 22062R   26077.79925385 -.00001952  00000+0 -10457-3 0  9994
2 52845  53.2189 353.2917 0001208  88.9349 271.1781 15.08839438207168
STARLINK-4212           
1 52846U 22062S   26077.46899710 -.00000168  00000+0  75501-5 0  9991
2 52846  53.2196 354.7197 0001358  87.8867 272.2281 15.08835311207110
STARLINK-4206           
1 52847U 22062T   26077.78820343 -.00000011  00000+0  17413-4 0  9997
2 52847  53.2193 353.2791 0001442  90.4467 269.6690 15.08833304207161
STARLINK-4202           
1 52848U 22062U   26077.07796046  .00000668  00000+0  60064-4 0  9999
2 52848  53.2204 356.4660 0001439  89.0011 271.1146 15.08833746207052
STARLINK-4197           
1 52849U 22062V   26077.45056077 -.00007177  00000+0 -43327-3 0  9991
2 52849  53.2188 344.7927 0001185 109.3707 250.7413 15.08840408207240
