[{"OBJECT_NAME":"STARLINK-4108","OBJECT_ID":"2022-062E","EPOCH":"2026-03-18T21:39:16.736256","MEAN_MOTION":15.08837558,"ECCENTRICITY":0.0001763,"INCLINATION":53.2189,"RA_OF_ASC_NODE":352.7651,"ARG_OF_PERICENTER":83.8344,"MEAN_ANOMALY":276.2849,"EPHEMERIS_TYPE":0,"CLASSIFICATION_TYPE":"U","NORAD_CAT_ID":52834,"ELEMENT_SET_NO":999,"REV_AT_EPOCH":20717,"BSTAR":7.0859e-5,"MEAN_MOTION_DOT":8.4e-6,"MEAN_MOTION_DDOT":0},{"OBJECT_NAME":"STARLINK-4080","OBJECT_ID":"2022-062F","EPOCH":"2026-03-18T21:33:58.720320","MEAN_MOTION":15.08844255,"ECCENTRICITY":0.0001322,"INCLINATION":53.2187,"RA_OF_ASC_NODE":352.782,"ARG_OF_PERICENTER":86.2068,"MEAN_ANOMALY":273.9076,"EPHEMERIS_TYPE":0,"CLASSIFICATION_TYPE":"U","NORAD_CAT_ID":52835,"ELEMENT_SET_NO":999,"REV_AT_EPOCH":20717,"BSTAR":3.2649e-5,"MEAN_MOTION_DOT":2.32e-6,"MEAN_MOTION_DDOT":0},{"OBJECT_NAME":"STARLINK-4043","OBJECT_ID":"2022-062G","EPOCH":"2026-03-18T19:01:44.286816","MEAN_MOTION":15.0884551,"ECCENTRICITY":0.0001443,"INCLINATION":53.2186,"RA_OF_ASC_NODE":353.5737,"ARG_OF_PERICENTER":88.6345,"MEAN_ANOMALY":271.4813,"EPHEMERIS_TYPE":0,"CLASSIFICATION_TYPE":"U","NORAD_CAT_ID":52836,"ELEMENT_SET_NO":999,"REV_AT_EPOCH":20715,"BSTAR":0.00021516,"MEAN_MOTION_DOT":3.139e-5,"MEAN_MOTION_DDOT":0},{"OBJECT_NAME":"STARLINK-4036","OBJECT_ID":"2022-062H","EPOCH":"2026-03-18T18:07:19.367328","MEAN_MOTION":15.08844349,"ECCENTRICITY":0.0001265,"INCLINATION":53.2195,"RA_OF_ASC_NODE":353.4268,"ARG_OF_PERICENTER":91.539,"MEAN_ANOMALY":268.5747,"EPHEMERIS_TYPE":0,"CLASSIFICATION_TYPE":"U","NORAD_CAT_ID":52837,"ELEMENT_SET_NO":999,"REV_AT_EPOCH":20715,"BSTAR":0.00015609,"MEAN_MOTION_DOT":2.197e-5,"MEAN_MOTION_DDOT":0},{"OBJECT_NAME":"STARLINK-4092","OBJECT_ID":"2022-062J","EPOCH":"2026-03-18T11:51:04.182624","MEAN_MOTION":15.08835692,"ECCENTRICITY":0.00012724,"INCLINATION":53.2193,"RA_OF_ASC_NODE":354.5893,"ARG_OF_PERICENTER":90.4986,"MEAN_ANOMALY":269.6152,"EPHEMERIS_TYPE":0,"CLASSIFICATION_TYPE":"U","NORAD_CAT_ID":52838,"ELEMENT_SET_NO":999,"REV_AT_EPOCH":20711,"BSTAR":9.7285983e-5,"MEAN_MOTION_DOT":1.261e-5,"MEAN_MOTION_DDOT":0},{"OBJECT_NAME":"STARLINK-4048","OBJECT_ID":"2022-062K","EPOCH":"2026-03-18T17:56:43.003680","MEAN_MOTION":15.08841081,"ECCENTRICITY":0.0001195,"INCLINATION":53.2192,"RA_OF_ASC_NODE":353.4599,"ARG_OF_PERICENTER":89.0903,"MEAN_ANOMALY":271.0226,"EPHEMERIS_TYPE":0,"CLASSIFICATION_TYPE":"U","NORAD_CAT_ID":52839,"ELEMENT_SET_NO":999,"REV_AT_EPOCH":20715,"BSTAR":7.4833e-5,"MEAN_MOTION_DOT":9.03e-6,"MEAN_MOTION_DDOT":0},{"OBJECT_NAME":"STARLINK-4049","OBJECT_ID":"2022-062L","EPOCH":"2026-03-18T11:56:22.953696","MEAN_MOTION":15.08845286,"ECCENTRICITY":0.00016002,"INCLINATION":53.218,"RA_OF_ASC_NODE":354.6979,"ARG_OF_PERICENTER":90.0327,"MEAN_ANOMALY":270.0849,"EPHEMERIS_TYPE":0,"CLASSIFICATION_TYPE":"U","NORAD_CAT_ID":52840,"ELEMENT_SET_NO":999,"REV_AT_EPOCH":20711,"BSTAR":9.6718536e-5,"MEAN_MOTION_DOT":1.252e-5,"MEAN_MOTION_DDOT":0},{"OBJECT_NAME":"STARLINK-4065","OBJECT_ID":"2022-062M","EPOCH":"2026-03-18T11:19:17.041728","MEAN_MOTION":15.0882466,"ECCENTRICITY":0.00013688,"INCLINATION":53.2205,"RA_OF_ASC_NODE":354.6976,"ARG_OF_PERICENTER":91.588,"MEAN_ANOMALY":268.5269,"EPHEMERIS_TYPE":0,"CLASSIFICATION_TYPE":"U","NORAD_CAT_ID":52841,"ELEMENT_SET_NO":999,"REV_AT_EPOCH":20711,"BSTAR":-4.5708791e-5,"MEAN_MOTION_DOT":-1.015e-5,"MEAN_MOTION_DDOT":0},{"OBJECT_NAME":"STARLINK-4046","OBJECT_ID":"2022-062N","EPOCH":"2026-03-18T18:02:00.258432","MEAN_MOTION":15.08842432,"ECCENTRICITY":0.0001433,"INCLINATION":53.2194,"RA_OF_ASC_NODE":353.3666,"ARG_OF_PERICENTER":80.704,"MEAN_ANOMALY":279.4114,"EPHEMERIS_TYPE":0,"CLASSIFICATION_TYPE":"U","NORAD_CAT_ID":52842,"ELEMENT_SET_NO":999,"REV_AT_EPOCH":20715,"BSTAR":4.1079e-5,"MEAN_MOTION_DOT":3.66e-6,"MEAN_MOTION_DDOT":0},{"OBJECT_NAME":"STARLINK-4188","OBJECT_ID":"2022-062P","EPOCH":"2026-03-18T19:05:36.846240","MEAN_MOTION":15.08836917,"ECCENTRICITY":0.0001808,"INCLINATION":53.2194,"RA_OF_ASC_NODE":353.2447,"ARG_OF_PERICENTER":97.8985,"MEAN_ANOMALY":262.2212,"EPHEMERIS_TYPE":0,"CLASSIFICATION_TYPE":"U","NORAD_CAT_ID":52843,"ELEMENT_SET_NO":999,"REV_AT_EPOCH":20716,"BSTAR":-6.9324e-6,"MEAN_MOTION_DOT":-3.98e-6,"MEAN_MOTION_DDOT":0},{"OBJECT_NAME":"STARLINK-4208","OBJECT_ID":"2022-062Q","EPOCH":"2026-03-18T17:51:24.727680","MEAN_MOTION":15.08849331,"ECCENTRICITY":0.0001349,"INCLINATION":53.2199,"RA_OF_ASC_NODE":353.4745,"ARG_OF_PERICENTER":90.0356,"MEAN_ANOMALY":270.079,"EPHEMERIS_TYPE":0,"CLASSIFICATION_TYPE":"U","NORAD_CAT_ID":52844,"ELEMENT_SET_NO":999,"REV_AT_EPOCH":20715,"BSTAR":0.00013071,"MEAN_MOTION_DOT":1.793e-5,"MEAN_MOTION_DDOT":0},{"OBJECT_NAME":"STARLINK-4168","OBJECT_ID":"2022-062R","EPOCH":"2026-03-18T19:10:55.532640","MEAN_MOTION":15.08839438,"ECCENTRICITY":0.0001208,"INCLINATION":53.2189,"RA_OF_ASC_NODE":353.2917,"ARG_OF_PERICENTER":88.9349,"MEAN_ANOMALY":271.1781,"EPHEMERIS_TYPE":0,"CLASSIFICATION_TYPE":"U","NORAD_CAT_ID":52845,"ELEMENT_SET_NO":999,"REV_AT_EPOCH":20716,"BSTAR":-0.00010457,"MEAN_MOTION_DOT":-1.952e-5,"MEAN_MOTION_DDOT":0},{"OBJECT_NAME":"STARLINK-4212","OBJECT_ID":"2022-062S","EPOCH":"2026-03-18T11:15:21.349440","MEAN_MOTION":15.08835311,"ECCENTRICITY":0.00013587,"INCLINATION":53.2196,"RA_OF_ASC_NODE":354.7197,"ARG_OF_PERICENTER":87.8867,"MEAN_ANOMALY":272.2281,"EPHEMERIS_TYPE":0,"CLASSIFICATION_TYPE":"U","NORAD_CAT_ID":52846,"ELEMENT_SET_NO":999,"REV_AT_EPOCH":20711,"BSTAR":7.550095e-6,"MEAN_MOTION_DOT":-1.68e-6,"MEAN_MOTION_DDOT":0},{"OBJECT_NAME":"STARLINK-4206","OBJECT_ID":"2022-062T","EPOCH":"2026-03-18T18:55:00.776352","MEAN_MOTION":15.08833304,"ECCENTRICITY":0.0001442,"INCLINATION":53.2193,"RA_OF_ASC_NODE":353.2791,"ARG_OF_PERICENTER":90.4467,"MEAN_ANOMALY":269.669,"EPHEMERIS_TYPE":0,"CLASSIFICATION_TYPE":"U","NORAD_CAT_ID":52847,"ELEMENT_SET_NO":999,"REV_AT_EPOCH":20716,"BSTAR":1.7413e-5,"MEAN_MOTION_DOT":-1.1e-7,"MEAN_MOTION_DDOT":0},{"OBJECT_NAME":"STARLINK-4202","OBJECT_ID":"2022-062U","EPOCH":"2026-03-18T01:52:15.783744","MEAN_MOTION":15.08833746,"ECCENTRICITY":0.0001439,"INCLINATION":53.2204,"RA_OF_ASC_NODE":356.466,"ARG_OF_PERICENTER":89.0011,"MEAN_ANOMALY":271.1146,"EPHEMERIS_TYPE":0,"CLASSIFICATION_TYPE":"U","NORAD_CAT_ID":52848,"ELEMENT_SET_NO":999,"REV_AT_EPOCH":20705,"BSTAR":6.0064346e-5,"MEAN_MOTION_DOT":6.68e-6,"MEAN_MOTION_DDOT":0},{"OBJECT_NAME":"STARLINK-4197","OBJECT_ID":"2022-062V","EPOCH":"2026-03-18T10:48:48.450528","MEAN_MOTION":15.08840408,"ECCENTRICITY":0.00011852,"INCLINATION":53.2188,"RA_OF_ASC_NODE":344.7927,"ARG_OF_PERICENTER":109.3707,"MEAN_ANOMALY":250.7413,"EPHEMERIS_TYPE":0,"CLASSIFICATION_TYPE":"U","NORAD_CAT_ID":52849,"ELEMENT_SET_NO":999,"REV_AT_EPOCH":20724,"BSTAR":-0.00043327159,"MEAN_MOTION_DOT":-7.177e-5,"MEAN_MOTION_DDOT":0}]
